ALOS (DAICHI)           
1 28931U 06002A   26062.85251544  .00001943  00000+0  33385-3 0  9992
2 28931  98.1208  18.8377 0001134  51.0197 309.1109 14.69787621 72620
H-2A R/B                
1 28932U 06002B   26062.40614913  .00011806  00000+0  59324-3 0  9997
2 28932  98.2397 208.8910 0051915 262.6569  96.8760 15.16255084 93486
RESURS-DK 1             
1 29228U 06021A   26062.78259266  .00003513  00000+0  20627-3 0  9994
2 29228  69.9303 252.3043 0002477 165.6420 194.4817 15.12696479 86635
CZ-4B R/B               
1 29507U 06046C   26062.80410502  .00006831  00000+0  34642-3 0  9994
2 29507  97.5603 107.7285 0031750 288.7126  71.0662 15.16830962 59158
CZ-2C R/B               
1 31114U 07010B   26062.73762471  .00000160  00000+0  92538-4 0  9998
2 31114  98.3977 176.3150 0058052 312.2348  47.3912 14.20243734978876
COSMO-SKYMED 1          
1 31598U 07023A   26062.84733957  .00004477  00000+0  39946-3 0  9995
2 31598  97.8861 253.8331 0000817  89.5652 270.5663 14.96479045 14039
COSMOS 2428             
1 31792U 07029A   26062.72952554  .00000072  00000+0  64228-4 0  9999
2 31792  70.9421 215.8530 0008788 283.3452  76.6689 14.12944512963259
SL-16 R/B               
1 31793U 07029B   26062.77530314 -.00000153  00000+0 -54637-4 0  9996
2 31793  70.9756 184.8160 0002427 278.0929 189.2811 14.14833889964535
KORONAS-FOTON           
1 33504U 09003A   26062.66925682  .00016331  00000+0  36694-3 0  9991
2 33504  82.4281 282.1375 0010818 170.1514 189.9948 15.43152093944814
CZ-2C R/B               
1 37731U 11030B   26062.80188185  .00002427  00000+0  31136-3 0  9992
2 37731  97.8533  20.1831 0052966  11.2331  47.6410 14.81194075789222
H-2A R/B                
1 38341U 12025E   26062.83929231  .00005533  00000+0  50126-3 0  9994
2 38341  98.4716  29.4170 0043886 333.6566  26.2421 14.95104186747341
SHIJIAN-16 (SJ-16)      
1 39358U 13057A   26062.86362370  .00001335  00000+0  13322-3 0  9990
2 39358  74.9729 196.1157 0015713 127.9533 232.3077 14.92309367670635
