CCSDS_OMM_VERS = 2.0
CREATION_DATE  = 
ORIGINATOR     = 

OBJECT_NAME    = ALOS (DAICHI)
OBJECT_ID      = 2006-002A
CENTER_NAME    = EARTH
REF_FRAME      = TEME
TIME_SYSTEM    = UTC
MEAN_ELEMENT_THEORY = SGP/SGP4

EPOCH          = 2026-03-03T20:27:37.334016
MEAN_MOTION    = 14.69787621
ECCENTRICITY   = .0001134
INCLINATION    = 98.1208
RA_OF_ASC_NODE = 18.8377
ARG_OF_PERICENTER = 51.0197
MEAN_ANOMALY   = 309.1109

EPHEMERIS_TYPE = 0
CLASSIFICATION_TYPE = U
NORAD_CAT_ID   = 28931
ELEMENT_SET_NO = 999
REV_AT_EPOCH   = 7262
BSTAR          = .33385E-3
MEAN_MOTION_DOT = .1943E-4
MEAN_MOTION_DDOT = 0

CCSDS_OMM_VERS = 2.0
CREATION_DATE  = 
ORIGINATOR     = 

OBJECT_NAME    = H-2A R/B
OBJECT_ID      = 2006-002B
CENTER_NAME    = EARTH
REF_FRAME      = TEME
TIME_SYSTEM    = UTC
MEAN_ELEMENT_THEORY = SGP/SGP4

EPOCH          = 2026-03-03T09:44:51.284832
MEAN_MOTION    = 15.16255084
ECCENTRICITY   = .00519152
INCLINATION    = 98.2397
RA_OF_ASC_NODE = 208.8910
ARG_OF_PERICENTER = 262.6569
MEAN_ANOMALY   = 96.8760

EPHEMERIS_TYPE = 0
CLASSIFICATION_TYPE = U
NORAD_CAT_ID   = 28932
ELEMENT_SET_NO = 999
REV_AT_EPOCH   = 9348
BSTAR          = .59324383E-3
MEAN_MOTION_DOT = .11806E-3
MEAN_MOTION_DDOT = 0

CCSDS_OMM_VERS = 2.0
CREATION_DATE  = 
ORIGINATOR     = 

OBJECT_NAME    = RESURS-DK 1
OBJECT_ID      = 2006-021A
CENTER_NAME    = EARTH
REF_FRAME      = TEME
TIME_SYSTEM    = UTC
MEAN_ELEMENT_THEORY = SGP/SGP4

EPOCH          = 2026-03-03T18:46:56.005824
MEAN_MOTION    = 15.12696479
ECCENTRICITY   = .0002477
INCLINATION    = 69.9303
RA_OF_ASC_NODE = 252.3043
ARG_OF_PERICENTER = 165.6420
MEAN_ANOMALY   = 194.4817

EPHEMERIS_TYPE = 0
CLASSIFICATION_TYPE = U
NORAD_CAT_ID   = 29228
ELEMENT_SET_NO = 999
REV_AT_EPOCH   = 8663
BSTAR          = .20627E-3
MEAN_MOTION_DOT = .3513E-4
MEAN_MOTION_DDOT = 0

CCSDS_OMM_VERS = 2.0
CREATION_DATE  = 
ORIGINATOR     = 

OBJECT_NAME    = CZ-4B R/B
OBJECT_ID      = 2006-046C
CENTER_NAME    = EARTH
REF_FRAME      = TEME
TIME_SYSTEM    = UTC
MEAN_ELEMENT_THEORY = SGP/SGP4

EPOCH          = 2026-03-03T19:17:54.673728
MEAN_MOTION    = 15.16830962
ECCENTRICITY   = .003175
INCLINATION    = 97.5603
RA_OF_ASC_NODE = 107.7285
ARG_OF_PERICENTER = 288.7126
MEAN_ANOMALY   = 71.0662

EPHEMERIS_TYPE = 0
CLASSIFICATION_TYPE = U
NORAD_CAT_ID   = 29507
ELEMENT_SET_NO = 999
REV_AT_EPOCH   = 5915
BSTAR          = .34642E-3
MEAN_MOTION_DOT = .6831E-4
MEAN_MOTION_DDOT = 0

CCSDS_OMM_VERS = 2.0
CREATION_DATE  = 
ORIGINATOR     = 

OBJECT_NAME    = CZ-2C R/B
OBJECT_ID      = 2007-010B
CENTER_NAME    = EARTH
REF_FRAME      = TEME
TIME_SYSTEM    = UTC
MEAN_ELEMENT_THEORY = SGP/SGP4

EPOCH          = 2026-03-03T17:42:10.774944
MEAN_MOTION    = 14.20243734
ECCENTRICITY   = .0058052
INCLINATION    = 98.3977
RA_OF_ASC_NODE = 176.3150
ARG_OF_PERICENTER = 312.2348
MEAN_ANOMALY   = 47.3912

EPHEMERIS_TYPE = 0
CLASSIFICATION_TYPE = U
NORAD_CAT_ID   = 31114
ELEMENT_SET_NO = 999
REV_AT_EPOCH   = 97887
BSTAR          = .92538E-4
MEAN_MOTION_DOT = .16E-5
MEAN_MOTION_DDOT = 0

CCSDS_OMM_VERS = 2.0
CREATION_DATE  = 
ORIGINATOR     = 

OBJECT_NAME    = COSMO-SKYMED 1
OBJECT_ID      = 2007-023A
CENTER_NAME    = EARTH
REF_FRAME      = TEME
TIME_SYSTEM    = UTC
MEAN_ELEMENT_THEORY = SGP/SGP4

EPOCH          = 2026-03-03T20:20:10.138848
MEAN_MOTION    = 14.96479045
ECCENTRICITY   = .0000817
INCLINATION    = 97.8861
RA_OF_ASC_NODE = 253.8331
ARG_OF_PERICENTER = 89.5652
MEAN_ANOMALY   = 270.5663

EPHEMERIS_TYPE = 0
CLASSIFICATION_TYPE = U
NORAD_CAT_ID   = 31598
ELEMENT_SET_NO = 999
REV_AT_EPOCH   = 1403
BSTAR          = .39946E-3
MEAN_MOTION_DOT = .4477E-4
MEAN_MOTION_DDOT = 0

CCSDS_OMM_VERS = 2.0
CREATION_DATE  = 
ORIGINATOR     = 

OBJECT_NAME    = COSMOS 2428
OBJECT_ID      = 2007-029A
CENTER_NAME    = EARTH
REF_FRAME      = TEME
TIME_SYSTEM    = UTC
MEAN_ELEMENT_THEORY = SGP/SGP4

EPOCH          = 2026-03-03T17:30:31.006656
MEAN_MOTION    = 14.12944512
ECCENTRICITY   = .0008788
INCLINATION    = 70.9421
RA_OF_ASC_NODE = 215.8530
ARG_OF_PERICENTER = 283.3452
MEAN_ANOMALY   = 76.6689

EPHEMERIS_TYPE = 0
CLASSIFICATION_TYPE = U
NORAD_CAT_ID   = 31792
ELEMENT_SET_NO = 999
REV_AT_EPOCH   = 96325
BSTAR          = .64228E-4
MEAN_MOTION_DOT = .72E-6
MEAN_MOTION_DDOT = 0

CCSDS_OMM_VERS = 2.0
CREATION_DATE  = 
ORIGINATOR     = 

OBJECT_NAME    = SL-16 R/B
OBJECT_ID      = 2007-029B
CENTER_NAME    = EARTH
REF_FRAME      = TEME
TIME_SYSTEM    = UTC
MEAN_ELEMENT_THEORY = SGP/SGP4

EPOCH          = 2026-03-03T18:36:26.191296
MEAN_MOTION    = 14.14833889
ECCENTRICITY   = .0002427
INCLINATION    = 70.9756
RA_OF_ASC_NODE = 184.8160
ARG_OF_PERICENTER = 278.0929
MEAN_ANOMALY   = 189.2811

EPHEMERIS_TYPE = 0
CLASSIFICATION_TYPE = U
NORAD_CAT_ID   = 31793
ELEMENT_SET_NO = 999
REV_AT_EPOCH   = 96453
BSTAR          = -.54637E-4
MEAN_MOTION_DOT = -.153E-5
MEAN_MOTION_DDOT = 0

CCSDS_OMM_VERS = 2.0
CREATION_DATE  = 
ORIGINATOR     = 

OBJECT_NAME    = KORONAS-FOTON
OBJECT_ID      = 2009-003A
CENTER_NAME    = EARTH
REF_FRAME      = TEME
TIME_SYSTEM    = UTC
MEAN_ELEMENT_THEORY = SGP/SGP4

EPOCH          = 2026-03-03T16:03:43.789248
MEAN_MOTION    = 15.43152093
ECCENTRICITY   = .0010818
INCLINATION    = 82.4281
RA_OF_ASC_NODE = 282.1375
ARG_OF_PERICENTER = 170.1514
MEAN_ANOMALY   = 189.9948

EPHEMERIS_TYPE = 0
CLASSIFICATION_TYPE = U
NORAD_CAT_ID   = 33504
ELEMENT_SET_NO = 999
REV_AT_EPOCH   = 94481
BSTAR          = .36694E-3
MEAN_MOTION_DOT = .16331E-3
MEAN_MOTION_DDOT = 0

CCSDS_OMM_VERS = 2.0
CREATION_DATE  = 
ORIGINATOR     = 

OBJECT_NAME    = CZ-2C R/B
OBJECT_ID      = 2011-030B
CENTER_NAME    = EARTH
REF_FRAME      = TEME
TIME_SYSTEM    = UTC
MEAN_ELEMENT_THEORY = SGP/SGP4

EPOCH          = 2026-03-03T19:14:42.591840
MEAN_MOTION    = 14.81194075
ECCENTRICITY   = .0052966
INCLINATION    = 97.8533
RA_OF_ASC_NODE = 20.1831
ARG_OF_PERICENTER = 11.2331
MEAN_ANOMALY   = 47.6410

EPHEMERIS_TYPE = 0
CLASSIFICATION_TYPE = U
NORAD_CAT_ID   = 37731
ELEMENT_SET_NO = 999
REV_AT_EPOCH   = 78922
BSTAR          = .31136E-3
MEAN_MOTION_DOT = .2427E-4
MEAN_MOTION_DDOT = 0

CCSDS_OMM_VERS = 2.0
CREATION_DATE  = 
ORIGINATOR     = 

OBJECT_NAME    = H-2A R/B
OBJECT_ID      = 2012-025E
CENTER_NAME    = EARTH
REF_FRAME      = TEME
TIME_SYSTEM    = UTC
MEAN_ELEMENT_THEORY = SGP/SGP4

EPOCH          = 2026-03-03T20:08:34.855584
MEAN_MOTION    = 14.95104186
ECCENTRICITY   = .0043886
INCLINATION    = 98.4716
RA_OF_ASC_NODE = 29.4170
ARG_OF_PERICENTER = 333.6566
MEAN_ANOMALY   = 26.2421

EPHEMERIS_TYPE = 0
CLASSIFICATION_TYPE = U
NORAD_CAT_ID   = 38341
ELEMENT_SET_NO = 999
REV_AT_EPOCH   = 74734
BSTAR          = .50126E-3
MEAN_MOTION_DOT = .5533E-4
MEAN_MOTION_DDOT = 0

CCSDS_OMM_VERS = 2.0
CREATION_DATE  = 
ORIGINATOR     = 

OBJECT_NAME    = SHIJIAN-16 (SJ-16)
OBJECT_ID      = 2013-057A
CENTER_NAME    = EARTH
REF_FRAME      = TEME
TIME_SYSTEM    = UTC
MEAN_ELEMENT_THEORY = SGP/SGP4

EPOCH          = 2026-03-03T20:43:37.087680
MEAN_MOTION    = 14.92309367
ECCENTRICITY   = .0015713
INCLINATION    = 74.9729
RA_OF_ASC_NODE = 196.1157
ARG_OF_PERICENTER = 127.9533
MEAN_ANOMALY   = 232.3077

EPHEMERIS_TYPE = 0
CLASSIFICATION_TYPE = U
NORAD_CAT_ID   = 39358
ELEMENT_SET_NO = 999
REV_AT_EPOCH   = 67063
BSTAR          = .13322E-3
MEAN_MOTION_DOT = .1335E-4
MEAN_MOTION_DDOT = 0

